{"type": "FeatureCollection", "features": [ {"type": "Feature", "properties": {"norad_id": 30928, "name": "FENGYUN 1C DEB", "group": "fengyun-1c-debris", "lat": -80.04872509074485, "lon": -174.93612405988685, "alt_km": 1471.8222215657015, "timestamp": "2025-12-03T10:52:57.733201+00:00", "meta": {"OBJECT_NAME": "FENGYUN 1C DEB", "OBJECT_ID": "1999-025AZS", "EPOCH": "2025-12-02T04:48:04.904928", "MEAN_MOTION": 13.22221332, "ECCENTRICITY": 0.045112, "INCLINATION": 98.8836, "RA_OF_ASC_NODE": 67.0421, "ARG_OF_PERICENTER": 57.6478, "MEAN_ANOMALY": 7.5056, "EPHEMERIS_TYPE": 0, "CLASSIFICATION_TYPE": "U", "NORAD_CAT_ID": 30928, "ELEMENT_SET_NO": 999, "REV_AT_EPOCH": 90209, "BSTAR": 0.00088279603, "MEAN_MOTION_DOT": 5.96e-06, "MEAN_MOTION_DDOT": 0}, "tle": {"line1": "1 30928U 99025AZS 25336.20005677  .00000596  00000+0  88280-3 0  9991", "line2": "2 30928  98.8836  67.0421 0451120  57.6478   7.5056 13.22221332902090"}}, "geometry": {"type": "Point", "coordinates": [-174.93612405988685, -80.04872509074485]}}, {"type": "Feature", "properties": {"norad_id": 30930, "name": "FENGYUN 1C DEB", "group": "fengyun-1c-debris", "lat": 13.96120780236681, "lon": -171.78176149664438, "alt_km": 701.4837969535265, "timestamp": "2025-12-03T10:52:57.733213+00:00", "meta": {"OBJECT_NAME": "FENGYUN 1C DEB", "OBJECT_ID": "1999-025AZU", "EPOCH": "2025-12-02T07:40:45.179040", "MEAN_MOTION": 14.37352769, "ECCENTRICITY": 0.0109503, "INCLINATION": 98.2165, "RA_OF_ASC_NODE": 5.0765, "ARG_OF_PERICENTER": 137.3637, "MEAN_ANOMALY": 286.006, "EPHEMERIS_TYPE": 0, "CLASSIFICATION_TYPE": "U", "NORAD_CAT_ID": 30930, "ELEMENT_SET_NO": 999, "REV_AT_EPOCH": 98182, "BSTAR": 0.00047615, "MEAN_MOTION_DOT": 1.481e-05, "MEAN_MOTION_DDOT": 0}, "tle": {"line1": "1 30930U 99025AZU 25336.31996735  .00001481  00000+0  47615-3 0  9991", "line2": "2 30930  98.2165   5.0765 0109503 137.3637 286.0060 14.37352769981826"}}, "geometry": {"type": "Point", "coordinates": [-171.78176149664438, 13.96120780236681]}}, {"type": "Feature", "properties": {"norad_id": 30931, "name": "FENGYUN 1C DEB", "group": "fengyun-1c-debris", "lat": 61.68432288912854, "lon": -127.60674382674158, "alt_km": 838.4198045402172, "timestamp": "2025-12-03T10:52:57.733223+00:00", "meta": {"OBJECT_NAME": "FENGYUN 1C DEB", "OBJECT_ID": "1999-025AZV", "EPOCH": "2025-12-02T03:47:35.105280", "MEAN_MOTION": 14.01483755, "ECCENTRICITY": 0.00934004, "INCLINATION": 99.1741, "RA_OF_ASC_NODE": 33.6379, "ARG_OF_PERICENTER": 70.6138, "MEAN_ANOMALY": 353.2512, "EPHEMERIS_TYPE": 0, "CLASSIFICATION_TYPE": "U", "NORAD_CAT_ID": 30931, "ELEMENT_SET_NO": 999, "REV_AT_EPOCH": 95777, "BSTAR": 0.00063376382, "MEAN_MOTION_DOT": 9.5e-06, "MEAN_MOTION_DDOT": 0}, "tle": {"line1": "1 30931U 99025AZV 25336.15804520  .00000950  00000+0  63376-3 0  9996", "line2": "2 30931  99.1741  33.6379 0093400  70.6138 353.2512 14.01483755957775"}}, "geometry": {"type": "Point", "coordinates": [-127.60674382674158, 61.68432288912854]}}, {"type": "Feature", "properties": {"norad_id": 30932, "name": "FENGYUN 1C DEB", "group": "fengyun-1c-debris", "lat": -73.91011806335774, "lon": -56.86991394392254, "alt_km": 776.1130587248344, "timestamp": "2025-12-03T10:52:57.733234+00:00", "meta": {"OBJECT_NAME": "FENGYUN 1C DEB", "OBJECT_ID": "1999-025AZW", "EPOCH": "2025-12-02T13:21:15.743808", "MEAN_MOTION": 14.2657023, "ECCENTRICITY": 0.00597024, "INCLINATION": 98.908, "RA_OF_ASC_NODE": 269.2788, "ARG_OF_PERICENTER": 323.0906, "MEAN_ANOMALY": 36.6172, "EPHEMERIS_TYPE": 0, "CLASSIFICATION_TYPE": "U", "NORAD_CAT_ID": 30932, "ELEMENT_SET_NO": 999, "REV_AT_EPOCH": 96249, "BSTAR": 0.0039272041, "MEAN_MOTION_DOT": 9.621e-05, "MEAN_MOTION_DDOT": 0}, "tle": {"line1": "1 30932U 99025AZW 25336.55643222  .00009621  00000+0  39272-2 0  9992", "line2": "2 30932  98.9080 269.2788 0059702 323.0906  36.6172 14.26570230962496"}}, "geometry": {"type": "Point", "coordinates": [-56.86991394392254, -73.91011806335774]}}, {"type": "Feature", "properties": {"norad_id": 30933, "name": "FENGYUN 1C DEB", "group": "fengyun-1c-debris", "lat": -41.59755584580739, "lon": 131.3548623110333, "alt_km": 811.7095924471641, "timestamp": "2025-12-03T10:52:57.733244+00:00", "meta": {"OBJECT_NAME": "FENGYUN 1C DEB", "OBJECT_ID": "1999-025AZX", "EPOCH": "2025-12-02T22:23:32.870112", "MEAN_MOTION": 14.35984006, "ECCENTRICITY": 0.0078253, "INCLINATION": 99.0461, "RA_OF_ASC_NODE": 318.9397, "ARG_OF_PERICENTER": 350.741, "MEAN_ANOMALY": 63.2609, "EPHEMERIS_TYPE": 0, "CLASSIFICATION_TYPE": "U", "NORAD_CAT_ID": 30933, "ELEMENT_SET_NO": 999, "REV_AT_EPOCH": 95731, "BSTAR": 0.0070195, "MEAN_MOTION_DOT": 0.00021129, "MEAN_MOTION_DDOT": 0}, "tle": {"line1": "1 30933U 99025AZX 25336.93301933  .00021129  00000+0  70195-2 0  9991", "line2": "2 30933  99.0461 318.9397 0078253 350.7410  63.2609 14.35984006957315"}}, "geometry": {"type": "Point", "coordinates": [131.3548623110333, -41.59755584580739]}}, {"type": "Feature", "properties": {"norad_id": 30934, "name": "FENGYUN 1C DEB", "group": "fengyun-1c-debris", "lat": -80.64877842148601, "lon": -74.87563669802515, "alt_km": 1339.670283416951, "timestamp": "2025-12-03T10:52:57.733255+00:00", "meta": {"OBJECT_NAME": "FENGYUN 1C DEB", "OBJECT_ID": "1999-025AZY", "EPOCH": "2025-12-02T22:51:14.755968", "MEAN_MOTION": 13.46699008, "ECCENTRICITY": 0.0339969, "INCLINATION": 98.7654, "RA_OF_ASC_NODE": 215.1492, "ARG_OF_PERICENTER": 106.4436, "MEAN_ANOMALY": 257.4344, "EPHEMERIS_TYPE": 0, "CLASSIFICATION_TYPE": "U", "NORAD_CAT_ID": 30934, "ELEMENT_SET_NO": 999, "REV_AT_EPOCH": 91576, "BSTAR": 0.0019932, "MEAN_MOTION_DOT": 1.678e-05, "MEAN_MOTION_DDOT": 0}, "tle": {"line1": "1 30934U 99025AZY 25336.95225412  .00001678  00000+0  19932-2 0  9990", "line2": "2 30934  98.7654 215.1492 0339969 106.4436 257.4344 13.46699008915760"}}, "geometry": {"type": "Point", "coordinates": [-74.87563669802515, -80.64877842148601]}}, {"type": "Feature", "properties": {"norad_id": 30936, "name": "FENGYUN 1C DEB", "group": "fengyun-1c-debris", "lat": -80.3674192196038, "lon": 125.63366609053058, "alt_km": 801.2325930888992, "timestamp": "2025-12-03T10:52:57.733265+00:00", "meta": {"OBJECT_NAME": "FENGYUN 1C DEB", "OBJECT_ID": "1999-025BAA", "EPOCH": "2025-12-03T01:27:21.818016", "MEAN_MOTION": 14.23336774, "ECCENTRICITY": 0.0046102, "INCLINATION": 98.5827, "RA_OF_ASC_NODE": 8.1021, "ARG_OF_PERICENTER": 319.4718, "MEAN_ANOMALY": 95.1067, "EPHEMERIS_TYPE": 0, "CLASSIFICATION_TYPE": "U", "NORAD_CAT_ID": 30936, "ELEMENT_SET_NO": 999, "REV_AT_EPOCH": 96995, "BSTAR": 0.00065316, "MEAN_MOTION_DOT": 1.454e-05, "MEAN_MOTION_DDOT": 0}, "tle": {"line1": "1 30936U 99025BAA 25337.06066919  .00001454  00000+0  65316-3 0  9990", "line2": "2 30936  98.5827   8.1021 0046102 319.4718  95.1067 14.23336774969956"}}, "geometry": {"type": "Point", "coordinates": [125.63366609053058, -80.3674192196038]}}, {"type": "Feature", "properties": {"norad_id": 30937, "name": "FENGYUN 1C DEB", "group": "fengyun-1c-debris", "lat": -55.838131316775026, "lon": 43.58942763161668, "alt_km": 955.2085982176804, "timestamp": "2025-12-03T10:52:57.733276+00:00", "meta": {"OBJECT_NAME": "FENGYUN 1C DEB", "OBJECT_ID": "1999-025BAB", "EPOCH": "2025-12-03T02:48:48.428352", "MEAN_MOTION": 13.95582187, "ECCENTRICITY": 0.0075945, "INCLINATION": 99.0904, "RA_OF_ASC_NODE": 29.612, "ARG_OF_PERICENTER": 79.2752, "MEAN_ANOMALY": 336.2042, "EPHEMERIS_TYPE": 0, "CLASSIFICATION_TYPE": "U", "NORAD_CAT_ID": 30937, "ELEMENT_SET_NO": 999, "REV_AT_EPOCH": 95582, "BSTAR": 2.0465e-05, "MEAN_MOTION_DOT": -1.5e-07, "MEAN_MOTION_DDOT": 0}, "tle": {"line1": "1 30937U 99025BAB 25337.11722718 -.00000015  00000+0  20465-4 0  9993", "line2": "2 30937  99.0904  29.6120 0075945  79.2752 336.2042 13.95582187955825"}}, "geometry": {"type": "Point", "coordinates": [43.58942763161668, -55.838131316775026]}}, {"type": "Feature", "properties": {"norad_id": 30938, "name": "FENGYUN 1C DEB", "group": "fengyun-1c-debris", "lat": -61.846877945467675, "lon": 7.629274296925107, "alt_km": 823.6636042617083, "timestamp": "2025-12-03T10:52:57.733287+00:00", "meta": {"OBJECT_NAME": "FENGYUN 1C DEB", "OBJECT_ID": "1999-025BAC", "EPOCH": "2025-12-02T13:45:36.238176", "MEAN_MOTION": 14.19793566, "ECCENTRICITY": 0.00464503, "INCLINATION": 98.5913, "RA_OF_ASC_NODE": 350.3658, "ARG_OF_PERICENTER": 13.2309, "MEAN_ANOMALY": 108.3216, "EPHEMERIS_TYPE": 0, "CLASSIFICATION_TYPE": "U", "NORAD_CAT_ID": 30938, "ELEMENT_SET_NO": 999, "REV_AT_EPOCH": 96975, "BSTAR": 0.0004752314, "MEAN_MOTION_DOT": 9.75e-06, "MEAN_MOTION_DDOT": 0}, "tle": {"line1": "1 30938U 99025BAC 25336.57333609  .00000975  00000+0  47523-3 0  9997", "line2": "2 30938  98.5913 350.3658 0046450  13.2309 108.3216 14.19793566969755"}}, "geometry": {"type": "Point", "coordinates": [7.629274296925107, -61.846877945467675]}}, {"type": "Feature", "properties": {"norad_id": 30940, "name": "FENGYUN 1C DEB", "group": "fengyun-1c-debris", "lat": -64.82419885000343, "lon": 139.37442788469244, "alt_km": 896.7686244914757, "timestamp": "2025-12-03T10:52:57.733298+00:00", "meta": {"OBJECT_NAME": "FENGYUN 1C DEB", "OBJECT_ID": "1999-025BAE", "EPOCH": "2025-11-23T13:17:29.751648", "MEAN_MOTION": 14.0826145, "ECCENTRICITY": 0.004197, "INCLINATION": 98.622, "RA_OF_ASC_NODE": 328.746, "ARG_OF_PERICENTER": 57.4359, "MEAN_ANOMALY": 68.2923, "EPHEMERIS_TYPE": 0, "CLASSIFICATION_TYPE": "U", "NORAD_CAT_ID": 30940, "ELEMENT_SET_NO": 999, "REV_AT_EPOCH": 95862, "BSTAR": 0.00040929136, "MEAN_MOTION_DOT": 6.64e-06, "MEAN_MOTION_DDOT": 0}, "tle": {"line1": "1 30940U 99025BAE 25327.55381657  .00000664  00000+0  40929-3 0  9992", "line2": "2 30940  98.6220 328.7460 0041970  57.4359  68.2923 14.08261450958620"}}, "geometry": {"type": "Point", "coordinates": [139.37442788469244, -64.82419885000343]}}]}